NORAD_CAT_ID,OBJECT_NAME,OBJECT_TYPE,EPOCH,MEAN_MOTION,ECCENTRICITY,INCLINATION,RA_OF_ASC_NODE,ARG_OF_PERICENTER,MEAN_ANOMALY,BSTAR,MEAN_MOTION_DOT,MEAN_MOTION_DDOT,TLE_LINE0,TLE_LINE1,TLE_LINE2,SEMIMAJOR_AXIS,PERIOD,APOGEE,PERIGEE,DECAYED
53539.0,STARLINK-4123,PAYLOAD,2023-09-23 01:05:13,15.08855562,0.0001029,53.2162,148.2924,107.7196,252.3909,0.00044211,6.758e-05,0.0,0 STARLINK-4123,1 53539U 22101N   23266.04529411  .00006758  00000-0  44211-3 0  9997,2 53539  53.2162 148.2924 0001029 107.7196 252.3909 15.08855562 60505,6917.833,95.437,540.41,538.986,0.0
53539.0,STARLINK-4123,PAYLOAD,2023-09-24 02:31:23,15.08843344,0.0001003,53.2158,143.5343,103.8731,256.2373,6.7718e-05,7.9e-06,0.0,0 STARLINK-4123,1 53539U 22101N   23267.10513648  .00000790  00000-0  67718-4 0  9998,2 53539  53.2158 143.5343 0001003 103.8731 256.2373 15.08843344 60667,6917.87,95.437,540.429,539.041,0.0
53539.0,STARLINK-4123,PAYLOAD,2023-09-24 21:36:01,15.08845063,0.0001092,53.2162,139.9658,91.5931,268.5186,0.00015061,2.11e-05,0.0,0 STARLINK-4123,1 53539U 22101N   23267.90001774  .00002110  00000-0  15061-3 0  9999,2 53539  53.2162 139.9658 0001092  91.5931 268.5186 15.08845063 60784,6917.865,95.437,540.485,538.974,0.0
53539.0,STARLINK-4123,PAYLOAD,2023-09-25 08:43:43,15.08846082,0.0001182,53.216,137.8842,79.1663,280.9462,0.00023699,3.486e-05,0.0,0 STARLINK-4123,1 53539U 22101N   23268.36369751  .00003486  00000-0  23699-3 0  9995,2 53539  53.2160 137.8842 0001182  79.1663 280.9462 15.08846082 60853,6917.862,95.437,540.544,538.909,0.0
53539.0,STARLINK-4123,PAYLOAD,2023-09-25 21:26:48,15.08850196,0.0001289,53.2156,135.5068,75.9024,284.2112,0.00028819,4.303e-05,0.0,0 STARLINK-4123,1 53539U 22101N   23268.89361686  .00004303  00000-0  28819-3 0  9990,2 53539  53.2156 135.5068 0001289  75.9024 284.2112 15.08850196 60935,6917.849,95.437,540.606,538.823,0.0
53539.0,STARLINK-4123,PAYLOAD,2023-09-25 23:02:11,15.08851724,0.0001105,53.2151,135.208,83.8822,276.2296,0.00030858,4.628e-05,0.0,0 STARLINK-4123,1 53539U 22101N   23268.95985466  .00004628  00000-0  30858-3 0  9991,2 53539  53.2151 135.2080 0001105  83.8822 276.2296 15.08851724 60945,6917.845,95.437,540.474,538.945,0.0
53539.0,STARLINK-4123,PAYLOAD,2023-09-26 21:17:36,15.08834894,0.0001621,53.2159,131.0465,59.3941,300.7211,3.3637e-05,2.47e-06,0.0,0 STARLINK-4123,1 53539U 22101N   23269.88722714  .00000247  00000-0  33637-4 0  9991,2 53539  53.2159 131.0465 0001621  59.3941 300.7211 15.08834894 61082,6917.896,95.438,540.882,538.64,0.0
53539.0,STARLINK-4123,PAYLOAD,2023-09-27 00:28:22,15.08837498,0.0001538,53.2162,130.4503,64.0147,296.1004,9.3911e-05,1.207e-05,0.0,0 STARLINK-4123,1 53539U 22101N   23270.01970631  .00001207  00000-0  93911-4 0  9999,2 53539  53.2162 130.4503 0001538  64.0147 296.1004 15.08837498 61104,6917.888,95.438,540.817,538.689,0.0
53539.0,STARLINK-4123,PAYLOAD,2023-09-27 08:25:18,15.08838056,0.0001221,53.2151,128.9633,83.9194,276.1937,0.00012284,1.668e-05,0.0,0 STARLINK-4123,1 53539U 22101N   23270.35090588  .00001668  00000-0  12284-3 0  9994,2 53539  53.2151 128.9633 0001221  83.9194 276.1937 15.08838056 61158,6917.886,95.438,540.596,538.907,0.0
53539.0,STARLINK-4123,PAYLOAD,2023-09-27 21:08:23,15.08841571,0.0001407,53.2166,126.5825,101.1566,258.9584,0.00017585,2.512e-05,0.0,0 STARLINK-4123,1 53539U 22101N   23270.88082655  .00002512  00000-0  17585-3 0  9996,2 53539  53.2166 126.5825 0001407 101.1566 258.9584 15.08841571 61234,6917.876,95.437,540.714,538.767,0.0
53539.0,STARLINK-4123,PAYLOAD,2023-09-28 17:48:23,15.08857331,0.0001412,53.2164,122.7161,107.5945,252.5201,0.00046563,7.134e-05,0.0,0 STARLINK-4123,1 53539U 22101N   23271.74193833  .00007134  00000-0  46563-3 0  9996,2 53539  53.2164 122.7161 0001412 107.5945 252.5201 15.08857331 61361,6917.827,95.436,540.669,538.716,0.0
53539.0,STARLINK-4123,PAYLOAD,2023-09-28 20:59:09,15.08871729,0.0001263,53.2165,122.1218,96.2071,263.9066,0.00071963,0.00011193,0.0,0 STARLINK-4123,1 53539U 22101N   23271.87441359  .00011193  00000-0  71963-3 0  9991,2 53539  53.2165 122.1218 0001263  96.2071 263.9066 15.08871729 61381,6917.783,95.436,540.522,538.775,0.0
53539.0,STARLINK-4123,PAYLOAD,2023-09-29 00:09:55,15.0887176,0.0001416,53.2164,121.5262,105.0462,255.0687,0.00064887,0.00010063,0.0,0 STARLINK-4123,1 53539U 22101N   23272.00689042  .00010063  00000-0  64887-3 0  9992,2 53539  53.2164 121.5262 0001416 105.0462 255.0687 15.08871760 61404,6917.783,95.436,540.628,538.669,0.0
53539.0,STARLINK-4123,PAYLOAD,2023-09-29 17:39:10,15.08847879,0.0001262,53.2156,118.2518,88.169,271.9447,4.6841e-05,4.58e-06,0.0,0 STARLINK-4123,1 53539U 22101N   23272.73553669  .00000458  00000-0  46841-4 0  9995,2 53539  53.2156 118.2518 0001262  88.1690 271.9447 15.08847879 61512,6917.856,95.437,540.594,538.848,0.0
53539.0,STARLINK-4123,PAYLOAD,2023-09-29 20:49:56,15.0884236,0.0001422,53.2165,117.6639,95.3073,264.8081,-5.368e-05,-1.142e-05,0.0,0 STARLINK-4123,1 53539U 22101N   23272.86801806 -.00001142  00000-0 -53680-4 0  9990,2 53539  53.2165 117.6639 0001422  95.3073 264.8081 15.08842360 61539,6917.873,95.437,540.722,538.754,0.0
53539.0,STARLINK-4123,PAYLOAD,2023-09-30 06:22:15,15.0883872,0.0001362,53.2159,115.8794,91.7915,268.3233,-9.6389e-05,-1.822e-05,0.0,0 STARLINK-4123,1 53539U 22101N   23273.26545807 -.00001822  00000-0 -96389-4 0  9999,2 53539  53.2159 115.8794 0001362  91.7915 268.3233 15.08838720 61591,6917.884,95.438,540.692,538.807,0.0
53539.0,STARLINK-4123,PAYLOAD,2023-10-01 06:13:02,15.08834321,0.0001878,53.2158,111.4173,93.1012,267.0195,0.00024836,3.666e-05,0.0,0 STARLINK-4123,1 53539U 22101N   23274.25906214  .00003666  00000-0  24836-3 0  9995,2 53539  53.2158 111.4173 0001878  93.1012 267.0195 15.08834321 61742,6917.898,95.438,541.062,538.464,0.0
53539.0,STARLINK-4123,PAYLOAD,2023-10-01 18:56:08,15.0883972,0.0001601,53.216,109.0371,87.3294,272.7881,0.00019511,2.819e-05,0.0,0 STARLINK-4123,1 53539U 22101N   23274.78898244  .00002819  00000-0  19511-3 0  9999,2 53539  53.2160 109.0371 0001601  87.3294 272.7881 15.08839720 61821,6917.881,95.438,540.854,538.639,0.0
53539.0,STARLINK-4123,PAYLOAD,2023-10-01 20:31:31,15.08840664,0.0001629,53.216,108.739,83.676,276.4417,0.00018208,2.611e-05,0.0,0 STARLINK-4123,1 53539U 22101N   23274.85522197  .00002611  00000-0  18208-3 0  9990,2 53539  53.2160 108.7390 0001629  83.6760 276.4417 15.08840664 61831,6917.878,95.438,540.87,538.616,0.0
53539.0,STARLINK-4123,PAYLOAD,2023-10-02 20:22:18,15.08841293,0.0001392,53.215,104.2796,85.7193,274.3958,9.7825e-05,1.269e-05,0.0,0 STARLINK-4123,1 53539U 22101N   23275.84882334  .00001269  00000-0  97825-4 0  9993,2 53539  53.2150 104.2796 0001392  85.7193 274.3958 15.08841293 61983,6917.876,95.437,540.704,538.778,0.0
53539.0,STARLINK-4123,PAYLOAD,2023-10-03 12:16:10,15.08837095,0.0001302,53.215,101.3065,98.2918,261.8222,0.00011326,1.515e-05,0.0,0 STARLINK-4123,1 53539U 22101N   23276.51122700  .00001515  00000-0  11326-3 0  9997,2 53539  53.2150 101.3065 0001302  98.2918 261.8222 15.08837095 62087,6917.889,95.438,540.655,538.854,0.0
53539.0,STARLINK-4123,PAYLOAD,2023-10-03 18:37:42,15.088439,0.0001318,53.2151,100.118,92.8521,267.2622,9.3789e-05,1.205e-05,0.0,0 STARLINK-4123,1 53539U 22101N   23276.77618423  .00001205  00000-0  93789-4 0  9997,2 53539  53.2151 100.1180 0001318  92.8521 267.2622 15.08843900 62121,6917.868,95.437,540.645,538.822,0.0
53539.0,STARLINK-4123,PAYLOAD,2023-10-04 12:06:56,15.08843543,0.0001305,53.2152,96.8472,89.8443,270.2699,0.00015982,2.257e-05,0.0,0 STARLINK-4123,1 53539U 22101N   23277.50482563  .00002257  00000-0  15982-3 0  9999,2 53539  53.2152  96.8472 0001305  89.8443 270.2699 15.08843543 62235,6917.87,95.437,540.637,538.832,0.0
53539.0,STARLINK-4123,PAYLOAD,2023-10-04 18:28:29,15.08845759,0.0001297,53.2152,95.658,89.0471,271.067,0.00017721,2.534e-05,0.0,0 STARLINK-4123,1 53539U 22101N   23277.76978421  .00002534  00000-0  17721-3 0  9991,2 53539  53.2152  95.6580 0001297  89.0471 271.0670 15.08845759 62278,6917.863,95.437,540.625,538.831,0.0
53539.0,STARLINK-4123,PAYLOAD,2023-10-05 11:57:44,15.08839269,0.0001348,53.2153,92.3879,85.2394,274.8752,8.4559e-05,1.058e-05,0.0,0 STARLINK-4123,1 53539U 22101N   23278.49842839  .00001058  00000-0  84559-4 0  9999,2 53539  53.2153  92.3879 0001348  85.2394 274.8752 15.08839269 62386,6917.883,95.438,540.68,538.815,0.0
53539.0,STARLINK-4123,PAYLOAD,2023-10-05 16:43:53,15.08838857,0.0001366,53.2156,91.4955,86.1039,274.0109,6.6493e-05,7.7e-06,0.0,0 STARLINK-4123,1 53539U 22101N   23278.69714857  .00000770  00000-0  66493-4 0  9996,2 53539  53.2156  91.4955 0001366  86.1039 274.0109 15.08838857 62414,6917.884,95.438,540.694,538.804,0.0
53539.0,STARLINK-4123,PAYLOAD,2023-10-06 11:48:31,15.08838492,0.0001566,53.2181,87.9286,97.8472,262.2698,5.2901e-05,5.54e-06,0.0,0 STARLINK-4123,1 53539U 22101N   23279.49203043  .00000554  00000-0  52901-4 0  9994,2 53539  53.2181  87.9286 0001566  97.8472 262.2698 15.08838492 62531,6917.885,95.438,540.833,538.667,0.0
53539.0,STARLINK-4123,PAYLOAD,2023-10-06 18:10:03,15.0883976,0.0001478,53.2184,86.739,99.5393,260.5766,4.387e-05,4.1e-06,0.0,0 STARLINK-4123,1 53539U 22101N   23279.75698925  .00000410  00000-0  43870-4 0  9996,2 53539  53.2184  86.7390 0001478  99.5393 260.5766 15.08839760 62570,6917.881,95.438,540.769,538.724,0.0
53539.0,STARLINK-4123,PAYLOAD,2023-10-07 11:39:18,15.08836105,0.0001396,53.2186,83.4675,97.2658,262.8493,8.2919e-05,1.032e-05,0.0,0 STARLINK-4123,1 53539U 22101N   23280.48563233  .00001032  00000-0  82919-4 0  9999,2 53539  53.2186  83.4675 0001396  97.2658 262.8493 15.08836105 62684,6917.892,95.438,540.723,538.792,0.0
53539.0,STARLINK-4123,PAYLOAD,2023-10-07 18:00:50,15.08840291,0.0001396,53.2189,82.2788,97.6675,262.4476,0.00011569,1.554e-05,0.0,0 STARLINK-4123,1 53539U 22101N   23280.75058954  .00001554  00000-0  11569-3 0  9999,2 53539  53.2189  82.2788 0001396  97.6675 262.4476 15.08840291 62725,6917.879,95.438,540.71,538.779,0.0
